#cP2005  4 15 00 00 00.00000000    2880 *POS* WGS84 FIT DLR*
## 1318 432000.00000000    30.00000000 53475 0.0000000000000
+    1   L06  0  0  0  0  0  0  0  0  0  0  0  0  0  0  0  0
+          0  0  0  0  0  0  0  0  0  0  0  0  0  0  0  0  0
+          0  0  0  0  0  0  0  0  0  0  0  0  0  0  0  0  0
+          0  0  0  0  0  0  0  0  0  0  0  0  0  0  0  0  0
+          0  0  0  0  0  0  0  0  0  0  0  0  0  0  0  0  0
++         0  0  0  0  0  0  0  0  0  0  0  0  0  0  0  0  0
++         0  0  0  0  0  0  0  0  0  0  0  0  0  0  0  0  0
++         0  0  0  0  0  0  0  0  0  0  0  0  0  0  0  0  0
++         0  0  0  0  0  0  0  0  0  0  0  0  0  0  0  0  0
++         0  0  0  0  0  0  0  0  0  0  0  0  0  0  0  0  0
%c cc cc ccc ccc cccc cccc cccc cccc ccccc ccccc ccccc ccccc
%c cc cc ccc ccc cccc cccc cccc cccc ccccc ccccc ccccc ccccc
%f   .0000000   .000000000   .00000000000   .000000000000000
%f   .0000000   .000000000   .00000000000   .000000000000000
%i    0    0    0    0      0      0      0      0         0
%i    0    0    0    0      0      0      0      0         0
/* NOTE: CCCCCCCCCCCCCCCCCCCCCCCCCCCCCCCCCCCCCCCCCCCCCCCCCCC
/* CCCCCCCCCCCCCCCCCCCCCCCCCCCCCCCCCCCCCCCCCCCCCCCCCCCCCCCCC
/* CCCCCCCCCCCCCCCCCCCCCCCCCCCCCCCCCCCCCCCCCCCCCCCCCCCCCCCCC
/* CCCCCCCCCCCCCCCCCCCCCCCCCCCCCCCCCCCCCCCCCCCCCCCCCCCCCCCCC
*  2005 04 15 11 37 30.00000000
PL06  -6328.012012   -710.001850   2197.540914 999999.000000
*  2005 04 15 11 38 00.00000000
PL06  -6249.476173   -699.127098   2414.040293 999999.000000
*  2005 04 15 11 38 30.00000000
PL06  -6163.582933   -687.794442   2627.696545 999999.000000
*  2005 04 15 11 39 00.00000000
PL06  -6070.430977   -676.049130   2838.258097 999999.000000
*  2005 04 15 11 39 30.00000000
PL06  -5970.127759   -663.936443   3045.477065 999999.000000
*  2005 04 15 11 40 00.00000000
PL06  -5862.789376   -651.501609   3249.109560 999999.000000
*  2005 04 15 11 40 30.00000000
PL06  -5748.540413   -638.789711   3448.915988 999999.000000
*  2005 04 15 11 41 00.00000000
PL06  -5627.513779   -625.845599   3644.661334 999999.000000
*  2005 04 15 11 41 30.00000000
PL06  -5499.850541   -612.713796   3836.115440 999999.000000
*  2005 04 15 11 42 00.00000000
PL06  -5365.699740   -599.438422   4023.053270 999999.000000
*  2005 04 15 11 42 30.00000000
PL06  -5225.218210   -586.063099   4205.255173 999999.000000
*  2005 04 15 11 43 00.00000000
PL06  -5078.570383   -572.630871   4382.507141 999999.000000
*  2005 04 15 11 43 30.00000000
PL06  -4925.928083   -559.184110   4554.601058 999999.000000
*  2005 04 15 11 44 00.00000000
PL06  -4767.470317   -545.764440   4721.334937 999999.000000
*  2005 04 15 11 44 30.00000000
PL06  -4603.383055   -532.412650   4882.513152 999999.000000
*  2005 04 15 11 45 00.00000000
PL06  -4433.859013   -519.168626   5037.946665 999999.000000
*  2005 04 15 11 45 30.00000000
PL06  -4259.097427   -506.071273   5187.453262 999999.000000
*  2005 04 15 11 46 00.00000000
PL06  -4079.303781   -493.158436   5330.857777 999999.000000
*  2005 04 15 11 46 30.00000000
PL06  -3894.689535   -480.466822   5467.992261 999999.000000
*  2005 04 15 11 47 00.00000000
PL06  -3705.471908   -468.031948   5598.696164 999999.000000
*  2005 04 15 11 47 30.00000000
PL06  -3511.873599   -455.888059   5722.816544 999999.000000
*  2005 04 15 11 48 00.00000000
PL06  -3314.122514   -444.068064   5840.208232 999999.000000
*  2005 04 15 11 48 30.00000000
PL06  -3112.451495   -432.603479   5950.733994 999999.000000
*  2005 04 15 11 49 00.00000000
PL06  -2907.098030   -421.524367   6054.264693 999999.000000
*  2005 04 15 11 49 30.00000000
PL06  -2698.303963   -410.859287   6150.679421 999999.000000
*  2005 04 15 11 50 00.00000000
PL06  -2486.315207   -400.635249   6239.865632 999999.000000
*  2005 04 15 11 50 30.00000000
PL06  -2271.381443   -390.877654   6321.719266 999999.000000
*  2005 04 15 11 51 00.00000000
PL06  -2053.755824   -381.610256   6396.144852 999999.000000
*  2005 04 15 11 51 30.00000000
PL06  -1833.694681   -372.855118   6463.055618 999999.000000
*  2005 04 15 11 52 00.00000000
PL06  -1611.457214   -364.632571   6522.373584 999999.000000
*  2005 04 15 11 52 30.00000000
PL06  -1387.305190   -356.961185   6574.029647 999999.000000
*  2005 04 15 11 53 00.00000000
PL06  -1161.502630   -349.857733   6617.963659 999999.000000
*  2005 04 15 11 53 30.00000000
PL06   -934.315503   -343.337162   6654.124487 999999.000000
*  2005 04 15 11 54 00.00000000
PL06   -706.011403   -337.412573   6682.470065 999999.000000
*  2005 04 15 11 54 30.00000000
PL06   -476.859248   -332.095194   6702.967430 999999.000000
*  2005 04 15 11 55 00.00000000
PL06   -247.128970   -327.394368   6715.592763 999999.000000
*  2005 04 15 11 55 30.00000000
PL06    -17.091197   -323.317531   6720.331427 999999.000000
*  2005 04 15 11 56 00.00000000
PL06    212.983067   -319.870205   6717.177979 999999.000000
*  2005 04 15 11 56 30.00000000
PL06    442.822764   -317.055981   6706.136175 999999.000000
*  2005 04 15 11 57 00.00000000
PL06    672.157098   -314.876526   6687.218962 999999.000000
*  2005 04 15 11 57 30.00000000
PL06    900.715846   -313.331582   6660.448459 999999.000000
*  2005 04 15 11 58 00.00000000
PL06   1128.229669   -312.418968   6625.855949 999999.000000
*  2005 04 15 11 58 30.00000000
PL06   1354.430446   -312.134582   6583.481845 999999.000000
*  2005 04 15 11 59 00.00000000
PL06   1579.051593   -312.472419   6533.375627 999999.000000
*  2005 04 15 11 59 30.00000000
PL06   1801.828356   -313.424587   6475.595774 999999.000000
*  2005 04 15 12 00 00.00000000
PL06   2022.498107   -314.981330   6410.209728 999999.000000
*  2005 04 15 12 00 30.00000000
PL06   2240.800667   -317.131035   6337.293835 999999.000000
*  2005 04 15 12 01 00.00000000
PL06   2456.478630   -319.860266   6256.933263 999999.000000
*  2005 04 15 12 01 30.00000000
PL06   2669.277673   -323.153785   6169.221902 999999.000000
*  2005 04 15 12 02 00.00000000
PL06   2878.946858   -326.994582   6074.262247 999999.000000
*  2005 04 15 12 02 30.00000000
PL06   3085.238919   -331.363912   5972.165289 999999.000000
*  2005 04 15 12 03 00.00000000
PL06   3287.910567   -336.241330   5863.050394 999999.000000
*  2005 04 15 12 03 30.00000000
PL06   3486.722778   -341.604738   5747.045167 999999.000000
*  2005 04 15 12 04 00.00000000
PL06   3681.441080   -347.430438   5624.285304 999999.000000
*  2005 04 15 12 04 30.00000000
PL06   3871.835828   -353.693174   5494.914446 999999.000000
*  2005 04 15 12 05 00.00000000
PL06   4057.682481   -360.366186   5359.084025 999999.000000
*  2005 04 15 12 05 30.00000000
PL06   4238.761878   -367.421260   5216.953095 999999.000000
*  2005 04 15 12 06 00.00000000
PL06   4414.860510   -374.828782   5068.688154 999999.000000
*  2005 04 15 12 06 30.00000000
PL06   4585.770782   -382.557801   4914.462949 999999.000000
*  2005 04 15 12 07 00.00000000
PL06   4751.291274   -390.576090   4754.458275 999999.000000
*  2005 04 15 12 07 30.00000000
PL06   4911.226974   -398.850226   4588.861749 999999.000000
*  2005 04 15 12 08 00.00000000
PL06   5065.389491   -407.345649   4417.867599 999999.000000
*  2005 04 15 12 08 30.00000000
PL06   5213.597299   -416.026733   4241.676489 999999.000000
*  2005 04 15 12 09 00.00000000
PL06   5355.675997   -424.856854   4060.495277 999999.000000
*  2005 04 15 12 09 30.00000000
PL06   5491.458538   -433.798466   3874.536756 999999.000000
*  2005 04 15 12 10 00.00000000
PL06   5620.785417   -442.813184   3684.019372 999999.000000
*  2005 04 15 12 10 30.00000000
PL06   5743.504828   -451.861872   3489.166998 999999.000000
*  2005 04 15 12 11 00.00000000
PL06   5859.472897   -460.904720   3290.208709 999999.000000
*  2005 04 15 12 11 30.00000000
PL06   5968.553898   -469.901307   3087.378482 999999.000000
*  2005 04 15 12 12 00.00000000
PL06   6070.620408   -478.810688   2880.914879 999999.000000
*  2005 04 15 12 12 30.00000000
PL06   6165.553428   -487.591476   2671.060764 999999.000000
*  2005 04 15 12 13 00.00000000
PL06   6253.242529   -496.201938   2458.063033 999999.000000
*  2005 04 15 12 13 30.00000000
PL06   6333.585990   -504.600078   2242.172320 999999.000000
*  2005 04 15 12 14 00.00000000
PL06   6406.490926   -512.743735   2023.642704 999999.000000
*  2005 04 15 12 14 30.00000000
PL06   6471.873416   -520.590667   1802.731402 999999.000000
*  2005 04 15 12 15 00.00000000
PL06   6529.658608   -528.098648   1579.698457 999999.000000
*  2005 04 15 12 15 30.00000000
PL06   6579.780813   -535.225546   1354.806423 999999.000000
*  2005 04 15 12 16 00.00000000
PL06   6622.183587   -541.929418   1128.320051 999999.000000
*  2005 04 15 12 16 30.00000000
PL06   6656.819797   -548.168591    900.505959 999999.000000
*  2005 04 15 12 17 00.00000000
PL06   6683.651677   -553.901759    671.632322 999999.000000
*  2005 04 15 12 17 30.00000000
PL06   6702.650890   -559.088070    441.968539 999999.000000
*  2005 04 15 12 18 00.00000000
PL06   6713.798557   -563.687217    211.784878 999999.000000
*  2005 04 15 12 18 30.00000000
PL06   6717.085248   -567.659526    -18.647856 999999.000000
*  2005 04 15 12 19 00.00000000
PL06   6712.510972   -570.966048   -249.058629 999999.000000
*  2005 04 15 12 19 30.00000000
PL06   6700.085191   -573.568638   -479.176496 999999.000000
*  2005 04 15 12 20 00.00000000
PL06   6679.826798   -575.430049   -708.730934 999999.000000
*  2005 04 15 12 20 30.00000000
PL06   6651.764098   -576.514009   -937.452178 999999.000000
*  2005 04 15 12 21 00.00000000
PL06   6615.934746   -576.785310  -1165.071553 999999.000000
*  2005 04 15 12 21 30.00000000
PL06   6572.385698   -576.209885  -1391.321798 999999.000000
*  2005 04 15 12 22 00.00000000
PL06   6521.173124   -574.754886  -1615.937387 999999.000000
*  2005 04 15 12 22 30.00000000
PL06   6462.362336   -572.388762  -1838.654841 999999.000000
*  2005 04 15 12 23 00.00000000
PL06   6396.027695   -569.081339  -2059.213043 999999.000000
*  2005 04 15 12 23 30.00000000
PL06   6322.252506   -564.803887  -2277.353552 999999.000000
EOF
